[{"OBJECT_NAME":"STARLINK-33784","OBJECT_ID":"2025-069W","EPOCH":"2026-03-09T10:41:36.140352","MEAN_MOTION":15.30217807,"ECCENTRICITY":7.921e-5,"INCLINATION":53.1582,"RA_OF_ASC_NODE":143.8705,"ARG_OF_PERICENTER":130.5046,"MEAN_ANOMALY":229.6024,"EPHEMERIS_TYPE":0,"CLASSIFICATION_TYPE":"U","NORAD_CAT_ID":63453,"ELEMENT_SET_NO":999,"REV_AT_EPOCH":5336,"BSTAR":0.0011463826,"MEAN_MOTION_DOT":0.00033766,"MEAN_MOTION_DDOT":0},{"OBJECT_NAME":"CZ-4B DEB","OBJECT_ID":"2006-015E","EPOCH":"2026-03-09T20:34:53.082912","MEAN_MOTION":15.19885806,"ECCENTRICITY":0.00461993,"INCLINATION":98.0565,"RA_OF_ASC_NODE":201.7753,"ARG_OF_PERICENTER":62.4887,"MEAN_ANOMALY":298.1031,"EPHEMERIS_TYPE":0,"CLASSIFICATION_TYPE":"U","NORAD_CAT_ID":29538,"ELEMENT_SET_NO":999,"REV_AT_EPOCH":5389,"BSTAR":0.0022587151,"MEAN_MOTION_DOT":0.00050103,"MEAN_MOTION_DDOT":0}]
